ALOS (DAICHI)           
1 28931U 06002A   24039.49340163  .00002574  00000+0  48792-3 0  9999
2 28931  98.0209 355.5189 0001305 124.0006 236.1322 14.65093794962353
